SL-16 R/B               
1 22566U 93016B   25361.47686132  .00000210  00000+0  13227-3 0  9994
2 22566  71.0085   6.8506 0008046  68.1321 292.0657 14.15294091691955
COSMOS 2242             
1 22626U 93024A   25361.34951804  .00002834  00000+0  24882-3 0  9990
2 22626  82.5196 335.8796 0016126 182.3760 177.7388 14.96167935769571
SL-16 R/B               
1 22803U 93059B   25361.48375954  .00000266  00000+0  15546-3 0  9990
2 22803  70.9887 163.3945 0018695 314.8756  45.0849 14.17217393669302
ARIANE 40 R/B           
1 22830U 93061H   25361.21341382  .00000301  00000+0  12597-3 0  9995
2 22830  98.5057  66.4788 0011592 135.3012 224.9108 14.32811097683721
COSMOS 2278             
1 23087U 94023A   25361.31746006  .00000163  00000+0  10981-3 0  9993
2 23087  71.0535 326.5108 0007728 153.2471 206.9051 14.14349180634578
SL-16 R/B               
1 23088U 94023B   25361.32614181 -.00000184  00000+0 -70153-4 0  9996
2 23088  70.9972 222.8545 0002196   1.8736 358.2394 14.14998903635857
SL-16 R/B               
1 23343U 94074B   25361.07464176  .00000574  00000+0  83784-4 0  9990
2 23343  97.7189  29.8085 0008028  96.5914 283.3316 14.79305943676518
SL-16 R/B               
1 23405U 94077B   25361.47731227 -.00000228  00000+0 -92107-4 0  9997
2 23405  70.9823 144.4098 0005045 273.0860  86.9685 14.15551532606012
ARIANE 40+ R/B          
1 23561U 95021B   25361.19191878  .00000371  00000+0  13244-3 0  9992
2 23561  98.4633  68.6054 0006700   9.3366  49.3975 14.39706589608813
SL-16 R/B               
1 23705U 95058B   25361.33940749 -.00000059  00000+0 -56553-5 0  9994
2 23705  71.0217 332.1517 0014540 235.8435 124.1310 14.15481253557613
SL-16 R/B               
1 24298U 96051B   25361.29044319  .00000006  00000+0  29981-4 0  9993
2 24298  70.7596 328.4837 0019458 243.5261 116.3862 14.12397815511427
ORBVIEW 2 (SEASTAR)     
1 24883U 97037A   25361.41406521  .00000360  00000+0  14161-3 0  9995
2 24883  98.8464 158.8585 0001203 274.5332  85.5715 14.35427590498101
