CCSDS_OMM_VERS = 2.0
CREATION_DATE  = 
ORIGINATOR     = 

OBJECT_NAME    = SL-16 R/B
OBJECT_ID      = 1993-016B
CENTER_NAME    = EARTH
REF_FRAME      = TEME
TIME_SYSTEM    = UTC
MEAN_ELEMENT_THEORY = SGP/SGP4

EPOCH          = 2025-12-27T11:26:40.818048
MEAN_MOTION    = 14.15294091
ECCENTRICITY   = .0008046
INCLINATION    = 71.0085
RA_OF_ASC_NODE = 6.8506
ARG_OF_PERICENTER = 68.1321
MEAN_ANOMALY   = 292.0657

EPHEMERIS_TYPE = 0
CLASSIFICATION_TYPE = U
NORAD_CAT_ID   = 22566
ELEMENT_SET_NO = 999
REV_AT_EPOCH   = 69195
BSTAR          = .13227E-3
MEAN_MOTION_DOT = .21E-5
MEAN_MOTION_DDOT = 0

CCSDS_OMM_VERS = 2.0
CREATION_DATE  = 
ORIGINATOR     = 

OBJECT_NAME    = COSMOS 2242
OBJECT_ID      = 1993-024A
CENTER_NAME    = EARTH
REF_FRAME      = TEME
TIME_SYSTEM    = UTC
MEAN_ELEMENT_THEORY = SGP/SGP4

EPOCH          = 2025-12-27T08:23:18.358656
MEAN_MOTION    = 14.96167935
ECCENTRICITY   = .0016126
INCLINATION    = 82.5196
RA_OF_ASC_NODE = 335.8796
ARG_OF_PERICENTER = 182.3760
MEAN_ANOMALY   = 177.7388

EPHEMERIS_TYPE = 0
CLASSIFICATION_TYPE = U
NORAD_CAT_ID   = 22626
ELEMENT_SET_NO = 999
REV_AT_EPOCH   = 76957
BSTAR          = .24882E-3
MEAN_MOTION_DOT = .2834E-4
MEAN_MOTION_DDOT = 0

CCSDS_OMM_VERS = 2.0
CREATION_DATE  = 
ORIGINATOR     = 

OBJECT_NAME    = SL-16 R/B
OBJECT_ID      = 1993-059B
CENTER_NAME    = EARTH
REF_FRAME      = TEME
TIME_SYSTEM    = UTC
MEAN_ELEMENT_THEORY = SGP/SGP4

EPOCH          = 2025-12-27T11:36:36.824256
MEAN_MOTION    = 14.17217393
ECCENTRICITY   = .0018695
INCLINATION    = 70.9887
RA_OF_ASC_NODE = 163.3945
ARG_OF_PERICENTER = 314.8756
MEAN_ANOMALY   = 45.0849

EPHEMERIS_TYPE = 0
CLASSIFICATION_TYPE = U
NORAD_CAT_ID   = 22803
ELEMENT_SET_NO = 999
REV_AT_EPOCH   = 66930
BSTAR          = .15546E-3
MEAN_MOTION_DOT = .266E-5
MEAN_MOTION_DDOT = 0

CCSDS_OMM_VERS = 2.0
CREATION_DATE  = 
ORIGINATOR     = 

OBJECT_NAME    = ARIANE 40 R/B
OBJECT_ID      = 1993-061H
CENTER_NAME    = EARTH
REF_FRAME      = TEME
TIME_SYSTEM    = UTC
MEAN_ELEMENT_THEORY = SGP/SGP4

EPOCH          = 2025-12-27T05:07:18.954048
MEAN_MOTION    = 14.32811097
ECCENTRICITY   = .0011592
INCLINATION    = 98.5057
RA_OF_ASC_NODE = 66.4788
ARG_OF_PERICENTER = 135.3012
MEAN_ANOMALY   = 224.9108

EPHEMERIS_TYPE = 0
CLASSIFICATION_TYPE = U
NORAD_CAT_ID   = 22830
ELEMENT_SET_NO = 999
REV_AT_EPOCH   = 68372
BSTAR          = .12597E-3
MEAN_MOTION_DOT = .301E-5
MEAN_MOTION_DDOT = 0

CCSDS_OMM_VERS = 2.0
CREATION_DATE  = 
ORIGINATOR     = 

OBJECT_NAME    = COSMOS 2278
OBJECT_ID      = 1994-023A
CENTER_NAME    = EARTH
REF_FRAME      = TEME
TIME_SYSTEM    = UTC
MEAN_ELEMENT_THEORY = SGP/SGP4

EPOCH          = 2025-12-27T07:37:08.549184
MEAN_MOTION    = 14.14349180
ECCENTRICITY   = .0007728
INCLINATION    = 71.0535
RA_OF_ASC_NODE = 326.5108
ARG_OF_PERICENTER = 153.2471
MEAN_ANOMALY   = 206.9051

EPHEMERIS_TYPE = 0
CLASSIFICATION_TYPE = U
NORAD_CAT_ID   = 23087
ELEMENT_SET_NO = 999
REV_AT_EPOCH   = 63457
BSTAR          = .10981E-3
MEAN_MOTION_DOT = .163E-5
MEAN_MOTION_DDOT = 0

CCSDS_OMM_VERS = 2.0
CREATION_DATE  = 
ORIGINATOR     = 

OBJECT_NAME    = SL-16 R/B
OBJECT_ID      = 1994-023B
CENTER_NAME    = EARTH
REF_FRAME      = TEME
TIME_SYSTEM    = UTC
MEAN_ELEMENT_THEORY = SGP/SGP4

EPOCH          = 2025-12-27T07:49:38.652384
MEAN_MOTION    = 14.14998903
ECCENTRICITY   = .0002196
INCLINATION    = 70.9972
RA_OF_ASC_NODE = 222.8545
ARG_OF_PERICENTER = 1.8736
MEAN_ANOMALY   = 358.2394

EPHEMERIS_TYPE = 0
CLASSIFICATION_TYPE = U
NORAD_CAT_ID   = 23088
ELEMENT_SET_NO = 999
REV_AT_EPOCH   = 63585
BSTAR          = -.70153E-4
MEAN_MOTION_DOT = -.184E-5
MEAN_MOTION_DDOT = 0

CCSDS_OMM_VERS = 2.0
CREATION_DATE  = 
ORIGINATOR     = 

OBJECT_NAME    = SL-16 R/B
OBJECT_ID      = 1994-074B
CENTER_NAME    = EARTH
REF_FRAME      = TEME
TIME_SYSTEM    = UTC
MEAN_ELEMENT_THEORY = SGP/SGP4

EPOCH          = 2025-12-27T01:47:29.048064
MEAN_MOTION    = 14.79305943
ECCENTRICITY   = .00080289
INCLINATION    = 97.7189
RA_OF_ASC_NODE = 29.8085
ARG_OF_PERICENTER = 96.5914
MEAN_ANOMALY   = 283.3316

EPHEMERIS_TYPE = 0
CLASSIFICATION_TYPE = U
NORAD_CAT_ID   = 23343
ELEMENT_SET_NO = 999
REV_AT_EPOCH   = 67651
BSTAR          = .8378409E-4
MEAN_MOTION_DOT = .574E-5
MEAN_MOTION_DDOT = 0

CCSDS_OMM_VERS = 2.0
CREATION_DATE  = 
ORIGINATOR     = 

OBJECT_NAME    = SL-16 R/B
OBJECT_ID      = 1994-077B
CENTER_NAME    = EARTH
REF_FRAME      = TEME
TIME_SYSTEM    = UTC
MEAN_ELEMENT_THEORY = SGP/SGP4

EPOCH          = 2025-12-27T11:27:19.780128
MEAN_MOTION    = 14.15551532
ECCENTRICITY   = .0005045
INCLINATION    = 70.9823
RA_OF_ASC_NODE = 144.4098
ARG_OF_PERICENTER = 273.0860
MEAN_ANOMALY   = 86.9685

EPHEMERIS_TYPE = 0
CLASSIFICATION_TYPE = U
NORAD_CAT_ID   = 23405
ELEMENT_SET_NO = 999
REV_AT_EPOCH   = 60601
BSTAR          = -.92107E-4
MEAN_MOTION_DOT = -.228E-5
MEAN_MOTION_DDOT = 0

CCSDS_OMM_VERS = 2.0
CREATION_DATE  = 
ORIGINATOR     = 

OBJECT_NAME    = ARIANE 40+ R/B
OBJECT_ID      = 1995-021B
CENTER_NAME    = EARTH
REF_FRAME      = TEME
TIME_SYSTEM    = UTC
MEAN_ELEMENT_THEORY = SGP/SGP4

EPOCH          = 2025-12-27T04:36:21.782592
MEAN_MOTION    = 14.39706589
ECCENTRICITY   = .00067001
INCLINATION    = 98.4633
RA_OF_ASC_NODE = 68.6054
ARG_OF_PERICENTER = 9.3366
MEAN_ANOMALY   = 49.3975

EPHEMERIS_TYPE = 0
CLASSIFICATION_TYPE = U
NORAD_CAT_ID   = 23561
ELEMENT_SET_NO = 999
REV_AT_EPOCH   = 60881
BSTAR          = .13243722E-3
MEAN_MOTION_DOT = .371E-5
MEAN_MOTION_DDOT = 0

CCSDS_OMM_VERS = 2.0
CREATION_DATE  = 
ORIGINATOR     = 

OBJECT_NAME    = SL-16 R/B
OBJECT_ID      = 1995-058B
CENTER_NAME    = EARTH
REF_FRAME      = TEME
TIME_SYSTEM    = UTC
MEAN_ELEMENT_THEORY = SGP/SGP4

EPOCH          = 2025-12-27T08:08:44.807136
MEAN_MOTION    = 14.15481253
ECCENTRICITY   = .001454
INCLINATION    = 71.0217
RA_OF_ASC_NODE = 332.1517
ARG_OF_PERICENTER = 235.8435
MEAN_ANOMALY   = 124.1310

EPHEMERIS_TYPE = 0
CLASSIFICATION_TYPE = U
NORAD_CAT_ID   = 23705
ELEMENT_SET_NO = 999
REV_AT_EPOCH   = 55761
BSTAR          = -.56553E-5
MEAN_MOTION_DOT = -.59E-6
MEAN_MOTION_DDOT = 0

CCSDS_OMM_VERS = 2.0
CREATION_DATE  = 
ORIGINATOR     = 

OBJECT_NAME    = SL-16 R/B
OBJECT_ID      = 1996-051B
CENTER_NAME    = EARTH
REF_FRAME      = TEME
TIME_SYSTEM    = UTC
MEAN_ELEMENT_THEORY = SGP/SGP4

EPOCH          = 2025-12-27T06:58:14.291616
MEAN_MOTION    = 14.12397815
ECCENTRICITY   = .0019458
INCLINATION    = 70.7596
RA_OF_ASC_NODE = 328.4837
ARG_OF_PERICENTER = 243.5261
MEAN_ANOMALY   = 116.3862

EPHEMERIS_TYPE = 0
CLASSIFICATION_TYPE = U
NORAD_CAT_ID   = 24298
ELEMENT_SET_NO = 999
REV_AT_EPOCH   = 51142
BSTAR          = .29981E-4
MEAN_MOTION_DOT = .6E-7
MEAN_MOTION_DDOT = 0

CCSDS_OMM_VERS = 2.0
CREATION_DATE  = 
ORIGINATOR     = 

OBJECT_NAME    = ORBVIEW 2 (SEASTAR)
OBJECT_ID      = 1997-037A
CENTER_NAME    = EARTH
REF_FRAME      = TEME
TIME_SYSTEM    = UTC
MEAN_ELEMENT_THEORY = SGP/SGP4

EPOCH          = 2025-12-27T09:56:15.234144
MEAN_MOTION    = 14.35427590
ECCENTRICITY   = .0001203
INCLINATION    = 98.8464
RA_OF_ASC_NODE = 158.8585
ARG_OF_PERICENTER = 274.5332
MEAN_ANOMALY   = 85.5715

EPHEMERIS_TYPE = 0
CLASSIFICATION_TYPE = U
NORAD_CAT_ID   = 24883
ELEMENT_SET_NO = 999
REV_AT_EPOCH   = 49810
BSTAR          = .14161E-3
MEAN_MOTION_DOT = .36E-5
MEAN_MOTION_DDOT = 0

